     2              NAVIGATION DATA                         RINEX VERSION / TYPE
CCRINEXN V1.6.0 UX  CDDIS               04-FEB-18 23:30     PGM / RUN BY / DATE 
IGS BROADCAST EPHEMERIS FILE                                COMMENT             
    0.8382D-08 -0.7451D-08 -0.5960D-07  0.5960D-07          ION ALPHA           
    0.8806D+05 -0.3277D+05 -0.1966D+06  0.1966D+06          ION BETA            
    0.186264514923D-08 0.355271367880D-14   233472     1987 DELTA-UTC: A0,A1,T,W
    18                                                      LEAP SECONDS        
                                                            END OF HEADER       
16 18  2  4  2  0  0.0 0.329199247062D-04-0.682121026330D-12 0.000000000000D+00
    0.860000000000D+02-0.130312500000D+02 0.380158704516D-08 0.297161606152D+01
   -0.672414898872D-06 0.981776288245D-02 0.125579535961D-04 0.515358325386D+04
    0.720000000000D+04-0.782310962677D-07-0.276105676434D+01-0.122934579849D-06
    0.988290952068D+00 0.151062500000D+03 0.463291937603D+00-0.749209760897D-08
   -0.335371119764D-09 0.100000000000D+01 0.198700000000D+04 0.000000000000D+00
    0.200000000000D+01 0.000000000000D+00-0.107102096081D-07 0.860000000000D+02
    0.300000000000D+02 0.000000000000D+00 0.000000000000D+00 0.000000000000D+00
17 18  2  4  2  0  0.0-0.125941820443D-03 0.295585778076D-11 0.000000000000D+00
    0.116000000000D+03 0.694375000000D+02 0.406731226477D-08 0.196340085717D+01
    0.336579978466D-05 0.123722342541D-01 0.767596065998D-05 0.515375716209D+04
    0.720000000000D+04 0.428408384323D-07-0.174535744958D+01-0.305473804474D-06
    0.981723329106D+00 0.239968750000D+03-0.179511213902D+01-0.782818343481D-08
    0.293583657385D-09 0.100000000000D+01 0.198700000000D+04 0.000000000000D+00
    0.200000000000D+01 0.000000000000D+00-0.111758708954D-07 0.116000000000D+03
    0.453000000000D+04 0.000000000000D+00 0.000000000000D+00 0.000000000000D+00
19 18  2  4  2  0  0.0-0.459412112832D-03 0.250111042988D-11 0.000000000000D+00
    0.104000000000D+03 0.736875000000D+02 0.416267339205D-08-0.130086820348D+01
    0.403448939323D-05 0.970287632663D-02 0.680796802044D-05 0.515370153236D+04
    0.720000000000D+04 0.113621354103D-06-0.169809012171D+01 0.162050127983D-06
    0.979144482486D+00 0.258437500000D+03 0.111935347704D+01-0.801711965950D-08
    0.311798701953D-09 0.100000000000D+01 0.198700000000D+04 0.000000000000D+00
    0.200000000000D+01 0.000000000000D+00-0.153668224812D-07 0.104000000000D+03
    0.555000000000D+04 0.400000000000D+01 0.000000000000D+00 0.000000000000D+00
20 18  2  4  2  0  0.0 0.500013586134D-03 0.909494701773D-12 0.000000000000D+00
    0.140000000000D+02-0.813750000000D+02 0.515057168484D-08 0.899280150651D+00
   -0.437535345554D-05 0.448739936110D-02 0.102352350950D-04 0.515378313828D+04
    0.720000000000D+04 0.372529029846D-08 0.195150224516D+00-0.596046447754D-07
    0.928328279205D+00 0.169031250000D+03 0.177855413146D+01-0.841356474446D-08
   -0.296440919383D-09 0.100000000000D+01 0.198700000000D+04 0.000000000000D+00
    0.200000000000D+01 0.000000000000D+00-0.838190317154D-08 0.140000000000D+02
    0.180000000000D+02 0.400000000000D+01 0.000000000000D+00 0.000000000000D+00
21 18  2  4  2  0  0.0-0.434404704720D-03 0.432009983342D-11 0.000000000000D+00
    0.310000000000D+02-0.304375000000D+02 0.515021452711D-08-0.186036002330D+01
   -0.116601586342D-05 0.243864081567D-01 0.217184424400D-05 0.515376740837D+04
    0.720000000000D+04 0.357627868652D-06-0.792682108586D+00 0.333413481712D-06
    0.942594425173D+00 0.322468750000D+03-0.159877464530D+01-0.844642325600D-08
   -0.120362156424D-09 0.100000000000D+01 0.198700000000D+04 0.000000000000D+00
    0.200000000000D+01 0.000000000000D+00-0.102445483208D-07 0.310000000000D+02
    0.180000000000D+02 0.400000000000D+01 0.000000000000D+00 0.000000000000D+00
22 18  2  4  2  0  0.0-0.279594212770D-03-0.129602995003D-10 0.000000000000D+00
    0.320000000000D+02-0.955937500000D+02 0.519485920947D-08 0.138990259153D+01
   -0.514090061188D-05 0.725501985289D-02 0.104364007711D-04 0.515360767937D+04
    0.720000000000D+04-0.167638063431D-07 0.245491507535D+00-0.178813934326D-06
    0.925026164424D+00 0.162000000000D+03-0.161729429434D+01-0.848106740392D-08
   -0.294297974879D-09 0.100000000000D+01 0.198700000000D+04 0.000000000000D+00
    0.200000000000D+01 0.000000000000D+00-0.176951289177D-07 0.320000000000D+02
    0.300000000000D+02 0.000000000000D+00 0.000000000000D+00 0.000000000000D+00
23 18  2  4  2  0  0.0-0.219019129872D-03 0.113686837722D-12 0.000000000000D+00
    0.230000000000D+02 0.525312500000D+02 0.495877783280D-08 0.703404317305D+00
    0.291690230370D-05 0.119383611018D-01 0.964291393757D-05 0.515360271072D+04
    0.720000000000D+04-0.124797224999D-06 0.133468722388D+01 0.143423676491D-06
    0.943429466127D+00 0.186062500000D+03-0.239970799660D+01-0.840284997139D-08
    0.380015824364D-09 0.100000000000D+01 0.198700000000D+04 0.000000000000D+00
    0.200000000000D+01 0.000000000000D+00-0.200234353542D-07 0.230000000000D+02
    0.300000000000D+02 0.000000000000D+00 0.000000000000D+00 0.000000000000D+00
24 18  2  4  2  0  0.0-0.456268899143D-04-0.454747350886D-12 0.000000000000D+00
    0.690000000000D+02-0.737500000000D+01 0.546915638374D-08 0.120706443039D+00
   -0.335276126862D-06 0.677015201654D-02 0.405684113502D-05 0.515365153122D+04
    0.720000000000D+04 0.782310962677D-07 0.235591820934D+01 0.614672899246D-07
    0.942561689455D+00 0.292812500000D+03 0.518689641894D+00-0.873214944336D-08
   -0.125005206969D-09 0.100000000000D+01 0.198700000000D+04 0.000000000000D+00
    0.200000000000D+01 0.000000000000D+00 0.279396772385D-08 0.690000000000D+02
    0.396000000000D+03 0.400000000000D+01 0.000000000000D+00 0.000000000000D+00
25 18  2  4  2  0  0.0-0.533091835678D-03-0.613908923697D-11 0.000000000000D+00
    0.690000000000D+02-0.687500000000D+01 0.416624496940D-08-0.184276394224D+01
   -0.461935997009D-06 0.711586605757D-02 0.109653919935D-04 0.515369012451D+04
    0.720000000000D+04 0.137835741043D-06-0.283827227087D+01-0.223517417908D-07
    0.975583201528D+00 0.175593750000D+03 0.808660665997D+00-0.773960810003D-08
   -0.256082095419D-09 0.100000000000D+01 0.198700000000D+04 0.000000000000D+00
    0.200000000000D+01 0.000000000000D+00 0.558793544769D-08 0.690000000000D+02
    0.000000000000D+00 0.000000000000D+00 0.000000000000D+00 0.000000000000D+00
26 18  2  4  2  0  0.0-0.263205729425D-03 0.137561073643D-10 0.000000000000D+00
    0.220000000000D+02-0.186875000000D+02 0.454768933622D-08-0.233870388260D+01
   -0.105611979961D-05 0.263475440443D-02 0.116452574730D-04 0.515360853386D+04
    0.720000000000D+04-0.223517417908D-07-0.285818487832D+01-0.726431608200D-07
    0.957185477931D+00 0.155062500000D+03 0.247594496162D-02-0.802712030179D-08
   -0.381087300605D-09 0.100000000000D+01 0.198700000000D+04 0.000000000000D+00
    0.200000000000D+01 0.000000000000D+00 0.745058059692D-08 0.220000000000D+02
    0.300000000000D+02 0.000000000000D+00 0.000000000000D+00 0.000000000000D+00
27 18  2  4  2  0  0.0 0.365739688277D-03 0.159161572810D-11 0.000000000000D+00
    0.104000000000D+03 0.879687500000D+02 0.425339141685D-08 0.212208464477D+01
    0.458024442196D-05 0.542996008880D-02 0.868551433086D-05 0.515368194389D+04
    0.720000000000D+04-0.121071934700D-06-0.179879207873D+01 0.856816768646D-07
    0.976530579961D+00 0.219875000000D+03 0.350552185083D+00-0.802962052404D-08
    0.381801618099D-09 0.100000000000D+01 0.198700000000D+04 0.000000000000D+00
    0.200000000000D+01 0.000000000000D+00 0.186264514923D-08 0.104000000000D+03
    0.300000000000D+02 0.000000000000D+00 0.000000000000D+00 0.000000000000D+00
28 18  2  4  2  0  0.0 0.685670413077D-03 0.341060513165D-11 0.000000000000D+00
    0.290000000000D+02-0.100312500000D+02 0.374337005837D-08 0.293579516646D+01
   -0.474974513054D-06 0.197716300609D-01 0.111926347017D-04 0.515367568588D+04
    0.720000000000D+04 0.290572643280D-06-0.275673030555D+01-0.651925802231D-07
    0.987137542104D+00 0.172375000000D+03-0.152838348484D+01-0.733816296616D-08
   -0.322870591374D-09 0.100000000000D+01 0.198700000000D+04 0.000000000000D+00
    0.200000000000D+01 0.000000000000D+00-0.111758708954D-07 0.290000000000D+02
    0.228000000000D+04 0.000000000000D+00 0.000000000000D+00 0.000000000000D+00
30 18  2  4  2  0  0.0 0.106730964035D-03-0.341060513165D-11 0.000000000000D+00
    0.140000000000D+02-0.800000000000D+01 0.528879162687D-08-0.656752301558D+00
   -0.456348061562D-06 0.306376966182D-02 0.450573861599D-05 0.515356883430D+04
    0.720000000000D+04 0.558793544769D-07 0.244894696061D+01 0.130385160446D-07
    0.945222446320D+00 0.281937500000D+03-0.311218449212D+01-0.858857163166D-08
   -0.111433209882D-09 0.100000000000D+01 0.198700000000D+04 0.000000000000D+00
    0.200000000000D+01 0.000000000000D+00 0.372529029846D-08 0.140000000000D+02
    0.300000000000D+02 0.000000000000D+00 0.000000000000D+00 0.000000000000D+00
31 18  2  4  2  0  0.0 0.144125428051D-03-0.261479726760D-11 0.000000000000D+00
    0.950000000000D+02-0.135937500000D+02 0.494663461862D-08-0.101947731533D+01
   -0.936910510063D-06 0.883572048042D-02 0.458210706711D-05 0.515359462166D+04
    0.720000000000D+04-0.745058059692D-08 0.242573588689D+01-0.143423676491D-06
    0.964246212542D+00 0.288312500000D+03-0.160625195461D+00-0.843713715491D-08
   -0.442875590403D-10 0.100000000000D+01 0.198700000000D+04 0.000000000000D+00
    0.280000000000D+01 0.000000000000D+00-0.135041773319D-07 0.950000000000D+02
    0.180000000000D+02 0.400000000000D+01 0.000000000000D+00 0.000000000000D+00
